STARLINK-31212          
1 58875U 24019Y   26068.54005656 -.00001980  00000+0 -62491-4 0  9997
2 58875  42.9981 249.4121 0000863 255.9308 104.1448 15.27568832119044
BANDWAGON-2 OBJECT D    
1 62380U 24247D   26068.52261193  .00011259  00000+0  40119-3 0  9994
2 62380  44.9954 115.6710 0003488 351.1453   8.9368 15.29076102 67732
